{
  "type": "FeatureCollection",
  "features": [
    {
      "type": "Feature",
      "properties": {
        "norad_id": 15362,
        "name": "NOVA 3",
        "group": "nnss",
        "lat": -56.62504359985914,
        "lon": 80.682130182516,
        "alt_km": 1161.8512682920718,
        "timestamp": "2025-12-09T11:33:55.068257+00:00",
        "meta_object_name": "NOVA 3",
        "meta_object_id": "1984-110A",
        "meta_epoch": "2025-12-09T04:41:35.634912",
        "meta_mean_motion": 13.23043908,
        "meta_eccentricity": 0.0030762,
        "meta_inclination": 90.1223,
        "meta_ra_of_asc_node": 80.493,
        "meta_arg_of_pericenter": 341.9796,
        "meta_mean_anomaly": 38.6613,
        "meta_ephemeris_type": 0,
        "meta_classification_type": "U",
        "meta_norad_cat_id": 15362,
        "meta_element_set_no": 999,
        "meta_rev_at_epoch": 98652,
        "meta_bstar": 0.00019191,
        "meta_mean_motion_dot": 8.9e-07,
        "meta_mean_motion_ddot": 0,
        "tle_line1": "1 15362U 84110A   25343.19555133  .00000089  00000+0  19191-3 0  9990",
        "tle_line2": "2 15362  90.1223  80.4930 0030762 341.9796  38.6613 13.23043908986527"
      },
      "geometry": {
        "type": "Point",
        "coordinates": [
          80.682130182516,
          -56.62504359985914
        ]
      }
    },
    {
      "type": "Feature",
      "properties": {
        "norad_id": 15935,
        "name": "OSCAR 30",
        "group": "nnss",
        "lat": -53.112793320723,
        "lon": -80.42612318164966,
        "alt_km": 1227.5413618816938,
        "timestamp": "2025-12-09T11:33:55.068268+00:00",
        "meta_object_name": "OSCAR 30",
        "meta_object_id": "1985-066A",
        "meta_epoch": "2025-12-08T20:34:52.400352",
        "meta_mean_motion": 13.36077407,
        "meta_eccentricity": 0.01694116,
        "meta_inclination": 90.1649,
        "meta_ra_of_asc_node": 99.7836,
        "meta_arg_of_pericenter": 94.7382,
        "meta_mean_anomaly": 15.8226,
        "meta_ephemeris_type": 0,
        "meta_classification_type": "U",
        "meta_norad_cat_id": 15935,
        "meta_element_set_no": 999,
        "meta_rev_at_epoch": 96401,
        "meta_bstar": 0.0002840445,
        "meta_mean_motion_dot": 1.68e-06,
        "meta_mean_motion_ddot": 0,
        "tle_line1": "1 15935U 85066A   25342.85755093  .00000168  00000+0  28404-3 0  9991",
        "tle_line2": "2 15935  90.1649  99.7836 0169411  94.7382  15.8226 13.36077407964013"
      },
      "geometry": {
        "type": "Point",
        "coordinates": [
          -80.42612318164966,
          -53.112793320723
        ]
      }
    },
    {
      "type": "Feature",
      "properties": {
        "norad_id": 15936,
        "name": "OSCAR 24",
        "group": "nnss",
        "lat": -52.22403854271327,
        "lon": 92.47859440837632,
        "alt_km": 1243.467890700952,
        "timestamp": "2025-12-09T11:33:55.068279+00:00",
        "meta_object_name": "OSCAR 24",
        "meta_object_id": "1985-066B",
        "meta_epoch": "2025-12-09T04:57:02.871072",
        "meta_mean_motion": 13.35934984,
        "meta_eccentricity": 0.017046,
        "meta_inclination": 90.1788,
        "meta_ra_of_asc_node": 92.2429,
        "meta_arg_of_pericenter": 100.1995,
        "meta_mean_anomaly": 323.8882,
        "meta_ephemeris_type": 0,
        "meta_classification_type": "U",
        "meta_norad_cat_id": 15936,
        "meta_element_set_no": 999,
        "meta_rev_at_epoch": 96596,
        "meta_bstar": 0.00022743,
        "meta_mean_motion_dot": 1.37e-06,
        "meta_mean_motion_ddot": 0,
        "tle_line1": "1 15936U 85066B   25343.20628323  .00000137  00000+0  22743-3 0  9993",
        "tle_line2": "2 15936  90.1788  92.2429 0170460 100.1995 323.8882 13.35934984965968"
      },
      "geometry": {
        "type": "Point",
        "coordinates": [
          92.47859440837632,
          -52.22403854271327
        ]
      }
    },
    {
      "type": "Feature",
      "properties": {
        "norad_id": 17070,
        "name": "POLAR BEAR",
        "group": "nnss",
        "lat": 43.823704231108806,
        "lon": -175.72889701990624,
        "alt_km": 974.2958130237621,
        "timestamp": "2025-12-09T11:33:55.068289+00:00",
        "meta_object_name": "POLAR BEAR",
        "meta_object_id": "1986-088A",
        "meta_epoch": "2025-12-09T03:11:16.321920",
        "meta_mean_motion": 13.75249676,
        "meta_eccentricity": 0.0040751,
        "meta_inclination": 89.6177,
        "meta_ra_of_asc_node": 183.918,
        "meta_arg_of_pericenter": 129.7063,
        "meta_mean_anomaly": 347.5564,
        "meta_ephemeris_type": 0,
        "meta_classification_type": "U",
        "meta_norad_cat_id": 17070,
        "meta_element_set_no": 999,
        "meta_rev_at_epoch": 95929,
        "meta_bstar": 0.00014111,
        "meta_mean_motion_dot": 1.48e-06,
        "meta_mean_motion_ddot": 0,
        "tle_line1": "1 17070U 86088A   25343.13282780  .00000148  00000+0  14111-3 0  9996",
        "tle_line2": "2 17070  89.6177 183.9180 0040751 129.7063 347.5564 13.75249676959298"
      },
      "geometry": {
        "type": "Point",
        "coordinates": [
          -175.72889701990624,
          43.823704231108806
        ]
      }
    },
    {
      "type": "Feature",
      "properties": {
        "norad_id": 18361,
        "name": "OSCAR 27",
        "group": "nnss",
        "lat": -61.796609240737624,
        "lon": 79.84867133723226,
        "alt_km": 1065.277395642096,
        "timestamp": "2025-12-09T11:33:55.068300+00:00",
        "meta_object_name": "OSCAR 27",
        "meta_object_id": "1987-080A",
        "meta_epoch": "2025-12-09T04:43:49.250784",
        "meta_mean_motion": 13.4490558,
        "meta_eccentricity": 0.010266,
        "meta_inclination": 90.3742,
        "meta_ra_of_asc_node": 79.1398,
        "meta_arg_of_pericenter": 234.0617,
        "meta_mean_anomaly": 125.0974,
        "meta_ephemeris_type": 0,
        "meta_classification_type": "U",
        "meta_norad_cat_id": 18361,
        "meta_element_set_no": 999,
        "meta_rev_at_epoch": 87509,
        "meta_bstar": 0.00027786,
        "meta_mean_motion_dot": 1.76e-06,
        "meta_mean_motion_ddot": 0,
        "tle_line1": "1 18361U 87080A   25343.19709781  .00000176  00000+0  27786-3 0  9997",
        "tle_line2": "2 18361  90.3742  79.1398 0102660 234.0617 125.0974 13.44905580875097"
      },
      "geometry": {
        "type": "Point",
        "coordinates": [
          79.84867133723226,
          -61.796609240737624
        ]
      }
    },
    {
      "type": "Feature",
      "properties": {
        "norad_id": 18362,
        "name": "OSCAR 29",
        "group": "nnss",
        "lat": -44.31117497114398,
        "lon": 79.9756453878632,
        "alt_km": 1059.1172227872512,
        "timestamp": "2025-12-09T11:33:55.068310+00:00",
        "meta_object_name": "OSCAR 29",
        "meta_object_id": "1987-080B",
        "meta_epoch": "2025-12-09T04:56:41.186400",
        "meta_mean_motion": 13.44447438,
        "meta_eccentricity": 0.0103776,
        "meta_inclination": 90.3753,
        "meta_ra_of_asc_node": 79.5987,
        "meta_arg_of_pericenter": 257.4352,
        "meta_mean_anomaly": 162.9718,
        "meta_ephemeris_type": 0,
        "meta_classification_type": "U",
        "meta_norad_cat_id": 18362,
        "meta_element_set_no": 999,
        "meta_rev_at_epoch": 87462,
        "meta_bstar": 0.00025543,
        "meta_mean_motion_dot": 1.61e-06,
        "meta_mean_motion_ddot": 0,
        "tle_line1": "1 18362U 87080B   25343.20603225  .00000161  00000+0  25543-3 0  9999",
        "tle_line2": "2 18362  90.3753  79.5987 0103776 257.4352 162.9718 13.44447438874629"
      },
      "geometry": {
        "type": "Point",
        "coordinates": [
          79.9756453878632,
          -44.31117497114398
        ]
      }
    },
    {
      "type": "Feature",
      "properties": {
        "norad_id": 19070,
        "name": "OSCAR 23",
        "group": "nnss",
        "lat": -72.61617480215533,
        "lon": 17.31932035555828,
        "alt_km": 1180.7817196576634,
        "timestamp": "2025-12-09T11:33:55.068320+00:00",
        "meta_object_name": "OSCAR 23",
        "meta_object_id": "1988-033A",
        "meta_epoch": "2025-12-09T03:13:56.988768",
        "meta_mean_motion": 13.27786357,
        "meta_eccentricity": 0.0189226,
        "meta_inclination": 90.3215,
        "meta_ra_of_asc_node": 16.2809,
        "meta_arg_of_pericenter": 189.9548,
        "meta_mean_anomaly": 236.6533,
        "meta_ephemeris_type": 0,
        "meta_classification_type": "U",
        "meta_norad_cat_id": 19070,
        "meta_element_set_no": 999,
        "meta_rev_at_epoch": 82205,
        "meta_bstar": 0.00017797,
        "meta_mean_motion_dot": 9.7e-07,
        "meta_mean_motion_ddot": 0,
        "tle_line1": "1 19070U 88033A   25343.13468737  .00000097  00000+0  17797-3 0  9994",
        "tle_line2": "2 19070  90.3215  16.2809 0189226 189.9548 236.6533 13.27786357822051"
      },
      "geometry": {
        "type": "Point",
        "coordinates": [
          17.31932035555828,
          -72.61617480215533
        ]
      }
    }
  ]
}